EUTELSAT 21B            
1 38992U 12062B   26005.60501929  .00000129  00000+0  00000+0 0  9997
2 38992   0.0670  14.6705 0003021 274.1584  55.7546  1.00270548 48197
EUTELSAT 70B            
1 39020U 12069A   26005.61472602 -.00000044  00000+0  00000+0 0  9990
2 39020   0.0626  14.3241 0003859 250.5263 132.1492  1.00271803 47873
EUTELSAT 117 WEST A     
1 39122U 13012A   26005.57763244 -.00000013  00000+0  00000+0 0  9998
2 39122   0.0203  47.2826 0003057 244.7046 264.3110  1.00270833 46804
EUTELSAT 7B             
1 39163U 13022A   26005.60215927  .00000047  00000+0  00000+0 0  9994
2 39163   0.0654 358.9434 0005387 327.8413   2.1628  1.00270994 46311
EXPRESS-AT1             
1 39612U 14010A   26005.61186600  .00000077  00000+0  00000+0 0  9990
2 39612   0.0224 291.0786 0000644 285.4598 164.9179  1.00280050 43188
EXPRESS-AT2             
1 39613U 14010B   26005.62850610 -.00000282  00000+0  00000+0 0  9990
2 39613   0.0144 311.1763 0001465 330.7244 189.4177  1.00272234 42873
EUTELSAT 3B             
1 39773U 14030A   26005.60137927  .00000019  00000+0  00000+0 0  9993
2 39773   0.0635  18.3548 0004054 226.4107  80.0111  1.00272588 42436
EUTELSAT 115 WEST B     
1 40425U 15010B   26004.93605384 -.00000025  00000+0  00000+0 0  9998
2 40425   0.0103 152.7250 0000353 284.3980 249.4838  1.00269833 39752
